ONEWEB-0710             
1 55173U 23004AK  23318.94987448  .00000033  00000+0  52155-4 0  9997
2 55173  87.9234 193.7849 0001583  85.7935 274.3378 13.17649276 43109
ONEWEB-0711             
1 55174U 23004AL  23318.93485313  .00000281  00000+0  75720-3 0  9998
2 55174  87.9011 208.8864 0002573  82.9564 277.1857 13.11412275 41949
ONEWEB-0713             
1 55175U 23004AM  23318.95268555 -.00000433  00000+0 -12579-2 0  9991
2 55175  87.9011 208.8904 0002064  77.5239 282.6119 13.11414757 41937
ONEWEB-0715             
1 55176U 23004AN  23318.94781646 -.00000283  00000+0 -83409-3 0  9996
2 55176  87.8993 208.8978 0001939  70.8620 289.2718 13.11418511 41971
ONEWEB-0716             
1 55177U 23004AP  23318.94353689  .00000042  00000+0  75000-4 0  9999
2 55177  87.9215 193.7821 0001465  66.4447 293.6838 13.17648307 43104
ONEWEB-0717             
1 55178U 23004AQ  23318.39510794  .00000019  00000+0  15551-4 0  9990
2 55178  87.9233 193.8493 0002352  98.6775 261.4623 13.17649080 43089
ONEWEB-0719             
1 55179U 23004AR  23318.93719160 -.00000038  00000+0 -13038-3 0  9999
2 55179  87.9234 193.7292 0001925  71.9872 288.1469 13.17645258 43104
ONEWEB-0530             
1 55796U 23029A   23318.91667824 -.00001204  00000+0 -29982-2 0  9998
2 55796  87.9170 102.6468 0002552  87.3261 118.4978 13.20683392  5363
